[{"OBJECT_NAME":"HTV-X1","OBJECT_ID":"2025-241A","EPOCH":"2026-03-02T22:19:59.515680","MEAN_MOTION":15.48408287,"ECCENTRICITY":0.0008215,"INCLINATION":51.6319,"RA_OF_ASC_NODE":105.7724,"ARG_OF_PERICENTER":150.8374,"MEAN_ANOMALY":209.3074,"EPHEMERIS_TYPE":0,"CLASSIFICATION_TYPE":"U","NORAD_CAT_ID":66174,"ELEMENT_SET_NO":999,"REV_AT_EPOCH":55500,"BSTAR":0.00018075,"MEAN_MOTION_DOT":9.325e-5,"MEAN_MOTION_DDOT":0},{"OBJECT_NAME":"SZ-21 MODULE","OBJECT_ID":"2025-246C","EPOCH":"2026-03-02T13:24:56.678976","MEAN_MOTION":15.67907744,"ECCENTRICITY":0.0001469,"INCLINATION":41.4734,"RA_OF_ASC_NODE":247.2373,"ARG_OF_PERICENTER":286.7563,"MEAN_ANOMALY":73.3117,"EPHEMERIS_TYPE":0,"CLASSIFICATION_TYPE":"U","NORAD_CAT_ID":66515,"ELEMENT_SET_NO":999,"REV_AT_EPOCH":1695,"BSTAR":0.00034908,"MEAN_MOTION_DOT":0.00039531,"MEAN_MOTION_DDOT":0},{"OBJECT_NAME":"SHENZHOU-22","OBJECT_ID":"2025-272A","EPOCH":"2026-03-02T19:17:14.095104","MEAN_MOTION":15.60315912,"ECCENTRICITY":0.00066169,"INCLINATION":41.4651,"RA_OF_ASC_NODE":250.0496,"ARG_OF_PERICENTER":230.1207,"MEAN_ANOMALY":129.905,"EPHEMERIS_TYPE":0,"CLASSIFICATION_TYPE":"U","NORAD_CAT_ID":66645,"ELEMENT_SET_NO":999,"REV_AT_EPOCH":26752,"BSTAR":0.00021016754,"MEAN_MOTION_DOT":0.00017409,"MEAN_MOTION_DDOT":0},{"OBJECT_NAME":"SOYUZ-MS 28","OBJECT_ID":"2025-275A","EPOCH":"2026-03-02T22:19:59.515680","MEAN_MOTION":15.48408287,"ECCENTRICITY":0.0008215,"INCLINATION":51.6319,"RA_OF_ASC_NODE":105.7724,"ARG_OF_PERICENTER":150.8374,"MEAN_ANOMALY":209.3074,"EPHEMERIS_TYPE":0,"CLASSIFICATION_TYPE":"U","NORAD_CAT_ID":66664,"ELEMENT_SET_NO":999,"REV_AT_EPOCH":55505,"BSTAR":0.00018075,"MEAN_MOTION_DOT":9.325e-5,"MEAN_MOTION_DDOT":0},{"OBJECT_NAME":"DUPLEX","OBJECT_ID":"1998-067XS","EPOCH":"2026-03-03T02:23:00.417696","MEAN_MOTION":15.55725286,"ECCENTRICITY":0.0002012,"INCLINATION":51.6288,"RA_OF_ASC_NODE":102.4033,"ARG_OF_PERICENTER":88.3197,"MEAN_ANOMALY":271.8024,"EPHEMERIS_TYPE":0,"CLASSIFICATION_TYPE":"U","NORAD_CAT_ID":66906,"ELEMENT_SET_NO":999,"REV_AT_EPOCH":1410,"BSTAR":0.00046792,"MEAN_MOTION_DOT":0.00032492,"MEAN_MOTION_DDOT":0},{"OBJECT_NAME":"ISS OBJECT XT","OBJECT_ID":"1998-067XT","EPOCH":"2026-03-03T03:30:33.510816","MEAN_MOTION":15.67032672,"ECCENTRICITY":0.0004595,"INCLINATION":51.625,"RA_OF_ASC_NODE":98.9571,"ARG_OF_PERICENTER":37.5259,"MEAN_ANOMALY":322.6057,"EPHEMERIS_TYPE":0,"CLASSIFICATION_TYPE":"U","NORAD_CAT_ID":66907,"ELEMENT_SET_NO":999,"REV_AT_EPOCH":1415,"BSTAR":0.0012921,"MEAN_MOTION_DOT":0.00142412,"MEAN_MOTION_DDOT":0},{"OBJECT_NAME":"ISS OBJECT XU","OBJECT_ID":"1998-067XU","EPOCH":"2026-03-03T03:28:35.222304","MEAN_MOTION":15.67118412,"ECCENTRICITY":0.000472,"INCLINATION":51.6246,"RA_OF_ASC_NODE":98.9445,"ARG_OF_PERICENTER":40.6339,"MEAN_ANOMALY":319.5009,"EPHEMERIS_TYPE":0,"CLASSIFICATION_TYPE":"U","NORAD_CAT_ID":66908,"ELEMENT_SET_NO":999,"REV_AT_EPOCH":1415,"BSTAR":0.0013112,"MEAN_MOTION_DOT":0.0014509,"MEAN_MOTION_DDOT":0},{"OBJECT_NAME":"SILVERSAT","OBJECT_ID":"1998-067XV","EPOCH":"2026-03-03T02:14:21.890688","MEAN_MOTION":15.69479082,"ECCENTRICITY":0.0005412,"INCLINATION":51.6248,"RA_OF_ASC_NODE":98.6005,"ARG_OF_PERICENTER":37.0222,"MEAN_ANOMALY":323.1148,"EPHEMERIS_TYPE":0,"CLASSIFICATION_TYPE":"U","NORAD_CAT_ID":66909,"ELEMENT_SET_NO":999,"REV_AT_EPOCH":1415,"BSTAR":0.0014375,"MEAN_MOTION_DOT":0.00175992,"MEAN_MOTION_DDOT":0},{"OBJECT_NAME":"ISS OBJECT XW","OBJECT_ID":"1998-067XW","EPOCH":"2026-03-03T03:19:50.609280","MEAN_MOTION":15.66585333,"ECCENTRICITY":0.0004921,"INCLINATION":51.6245,"RA_OF_ASC_NODE":98.8999,"ARG_OF_PERICENTER":49.401,"MEAN_ANOMALY":310.7414,"EPHEMERIS_TYPE":0,"CLASSIFICATION_TYPE":"U","NORAD_CAT_ID":66910,"ELEMENT_SET_NO":999,"REV_AT_EPOCH":1415,"BSTAR":0.001209,"MEAN_MOTION_DOT":0.00130651,"MEAN_MOTION_DDOT":0},{"OBJECT_NAME":"ISS OBJECT XX","OBJECT_ID":"1998-067XX","EPOCH":"2026-03-02T09:39:44.401536","MEAN_MOTION":15.71628066,"ECCENTRICITY":0.0006901,"INCLINATION":51.6217,"RA_OF_ASC_NODE":101.4735,"ARG_OF_PERICENTER":40.4383,"MEAN_ANOMALY":319.7127,"EPHEMERIS_TYPE":0,"CLASSIFICATION_TYPE":"U","NORAD_CAT_ID":66911,"ELEMENT_SET_NO":999,"REV_AT_EPOCH":1404,"BSTAR":0.0015590665,"MEAN_MOTION_DOT":0.00209832,"MEAN_MOTION_DDOT":0},{"OBJECT_NAME":"ISS OBJECT XY","OBJECT_ID":"1998-067XY","EPOCH":"2026-03-03T02:58:27.229728","MEAN_MOTION":15.62320418,"ECCENTRICITY":0.0002849,"INCLINATION":51.6265,"RA_OF_ASC_NODE":100.3145,"ARG_OF_PERICENTER":52.7988,"MEAN_ANOMALY":307.3266,"EPHEMERIS_TYPE":0,"CLASSIFICATION_TYPE":"U","NORAD_CAT_ID":66912,"ELEMENT_SET_NO":999,"REV_AT_EPOCH":1412,"BSTAR":0.00098226,"MEAN_MOTION_DOT":0.00089006,"MEAN_MOTION_DDOT":0},{"OBJECT_NAME":"ISS OBJECT XZ","OBJECT_ID":"1998-067XZ","EPOCH":"2026-03-03T02:14:29.457600","MEAN_MOTION":15.51220688,"ECCENTRICITY":0.00095,"INCLINATION":51.6311,"RA_OF_ASC_NODE":104.6116,"ARG_OF_PERICENTER":163.9375,"MEAN_ANOMALY":196.1917,"EPHEMERIS_TYPE":0,"CLASSIFICATION_TYPE":"U","NORAD_CAT_ID":67683,"ELEMENT_SET_NO":999,"REV_AT_EPOCH":376,"BSTAR":0.00065554,"MEAN_MOTION_DOT":0.00038862,"MEAN_MOTION_DDOT":0},{"OBJECT_NAME":"GXIBA-1","OBJECT_ID":"1998-067YA","EPOCH":"2026-03-02T11:54:46.036224","MEAN_MOTION":15.53047483,"ECCENTRICITY":0.00110442,"INCLINATION":51.63,"RA_OF_ASC_NODE":107.375,"ARG_OF_PERICENTER":152.32,"MEAN_ANOMALY":207.838,"EPHEMERIS_TYPE":0,"CLASSIFICATION_TYPE":"U","NORAD_CAT_ID":67684,"ELEMENT_SET_NO":999,"REV_AT_EPOCH":367,"BSTAR":0.0011883441,"MEAN_MOTION_DOT":0.00076064,"MEAN_MOTION_DDOT":0},{"OBJECT_NAME":"CORAL","OBJECT_ID":"1998-067YB","EPOCH":"2026-03-02T09:09:48.620736","MEAN_MOTION":15.51449802,"ECCENTRICITY":0.00115824,"INCLINATION":51.6315,"RA_OF_ASC_NODE":108.1094,"ARG_OF_PERICENTER":157.7573,"MEAN_ANOMALY":202.3921,"EPHEMERIS_TYPE":0,"CLASSIFICATION_TYPE":"U","NORAD_CAT_ID":67685,"ELEMENT_SET_NO":999,"REV_AT_EPOCH":365,"BSTAR":0.00077682183,"MEAN_MOTION_DOT":0.00046607,"MEAN_MOTION_DDOT":0},{"OBJECT_NAME":"ISS OBJECT YC","OBJECT_ID":"1998-067YC","EPOCH":"2026-03-02T09:04:58.356480","MEAN_MOTION":15.51837466,"ECCENTRICITY":0.00077178,"INCLINATION":51.6316,"RA_OF_ASC_NODE":108.0894,"ARG_OF_PERICENTER":125.5885,"MEAN_ANOMALY":234.5825,"EPHEMERIS_TYPE":0,"CLASSIFICATION_TYPE":"U","NORAD_CAT_ID":67686,"ELEMENT_SET_NO":999,"REV_AT_EPOCH":365,"BSTAR":0.00085444662,"MEAN_MOTION_DOT":0.00051991,"MEAN_MOTION_DDOT":0},{"OBJECT_NAME":"LEOPARD","OBJECT_ID":"1998-067YD","EPOCH":"2026-03-02T15:22:46.244928","MEAN_MOTION":15.51318584,"ECCENTRICITY":0.0007695,"INCLINATION":51.6316,"RA_OF_ASC_NODE":106.8408,"ARG_OF_PERICENTER":130.3148,"MEAN_ANOMALY":229.8515,"EPHEMERIS_TYPE":0,"CLASSIFICATION_TYPE":"U","NORAD_CAT_ID":67687,"ELEMENT_SET_NO":999,"REV_AT_EPOCH":361,"BSTAR":0.00069517,"MEAN_MOTION_DOT":0.00041373,"MEAN_MOTION_DDOT":0},{"OBJECT_NAME":"ISS OBJECT YE","OBJECT_ID":"1998-067YE","EPOCH":"2026-03-02T12:12:35.467776","MEAN_MOTION":15.51667522,"ECCENTRICITY":0.00076399,"INCLINATION":51.6317,"RA_OF_ASC_NODE":107.4591,"ARG_OF_PERICENTER":126.6437,"MEAN_ANOMALY":233.5256,"EPHEMERIS_TYPE":0,"CLASSIFICATION_TYPE":"U","NORAD_CAT_ID":67688,"ELEMENT_SET_NO":999,"REV_AT_EPOCH":359,"BSTAR":0.00083945719,"MEAN_MOTION_DOT":0.0005075,"MEAN_MOTION_DDOT":0}]
